[{"OBJECT_NAME":"QIANFAN-42","OBJECT_ID":"2024-232G","EPOCH":"2026-03-09T22:42:14.938272","MEAN_MOTION":14.24534558,"ECCENTRICITY":0.00157446,"INCLINATION":89.0062,"RA_OF_ASC_NODE":27.3953,"ARG_OF_PERICENTER":150.7833,"MEAN_ANOMALY":209.4243,"EPHEMERIS_TYPE":0,"CLASSIFICATION_TYPE":"U","NORAD_CAT_ID":62243,"ELEMENT_SET_NO":999,"REV_AT_EPOCH":11378,"BSTAR":0.00021743398,"MEAN_MOTION_DOT":5.19e-6,"MEAN_MOTION_DDOT":0},{"OBJECT_NAME":"COSMOS 2251 DEB","OBJECT_ID":"1993-036BLC","EPOCH":"2026-03-01T17:53:12.380352","MEAN_MOTION":14.3279795,"ECCENTRICITY":0.00308324,"INCLINATION":74.0422,"RA_OF_ASC_NODE":186.9768,"ARG_OF_PERICENTER":248.0385,"MEAN_ANOMALY":111.7488,"EPHEMERIS_TYPE":0,"CLASSIFICATION_TYPE":"U","NORAD_CAT_ID":37336,"ELEMENT_SET_NO":999,"REV_AT_EPOCH":66251,"BSTAR":8.7721171e-5,"MEAN_MOTION_DOT":2.14e-6,"MEAN_MOTION_DDOT":0}]
